NORAD_CAT_ID,OBJECT_NAME,OBJECT_TYPE,EPOCH,MEAN_MOTION,ECCENTRICITY,INCLINATION,RA_OF_ASC_NODE,ARG_OF_PERICENTER,MEAN_ANOMALY,BSTAR,MEAN_MOTION_DOT,MEAN_MOTION_DDOT,TLE_LINE0,TLE_LINE1,TLE_LINE2,SEMIMAJOR_AXIS,PERIOD,APOGEE,PERIGEE,DECAYED
54097.0,STARLINK-5197,PAYLOAD,2022-10-25 18:00:00,15.90306923,0.0030936999999999,53.2173,122.8373,56.3057,293.1748,-0.0041199,-0.01337799,0.0005109,0 STARLINK-5197,1 54097U 22136AY  22298.75001157 -.01337799  51090-3 -41199-2 0  9993,2 54097  53.2173 122.8373 0030937  56.3057 293.1748 15.90306923  1308,6679.56,90.549,322.09,280.761,0.0
54097.0,STARLINK-5197,PAYLOAD,2022-10-25 22:00:01,15.89875814,0.0029684,53.2174,121.9926,57.3387,166.8153,-0.0042607,-0.0134816,0.00051602,0 STARLINK-5197,1 54097U 22136AY  22298.91668981 -.01348160  51602-3 -42607-2 0  9993,2 54097  53.2174 121.9926 0029684  57.3387 166.8153 15.89875814  1301,6680.768,90.573,322.464,282.802,0.0
54097.0,STARLINK-5197,PAYLOAD,2022-10-26 06:00:00,15.89005066,0.0026336,53.2174,120.3013,57.8449,274.6766,-0.0044639,-0.01339548,0.00050588,0 STARLINK-5197,1 54097U 22136AY  22299.25001157 -.01339548  50588-3 -44639-2 0  9996,2 54097  53.2174 120.3013 0026336  57.8449 274.6766 15.89005066  1375,6683.208000000001,90.623,322.6740000000001,287.472,0.0
54097.0,STARLINK-5197,PAYLOAD,2022-10-26 14:00:01,15.88090365,0.0022952,53.2174,118.6134,58.3883,21.5419,-0.0043946,-0.01250899,0.00044279,0 STARLINK-5197,1 54097U 22136AY  22299.58334491 -.01250899  44279-3 -43946-2 0  9993,2 54097  53.2174 118.6134 0022952  58.3883  21.5419 15.88090365  1433,6685.774,90.675,322.9840000000001,292.2940000000001,0.0
54097.0,STARLINK-5197,PAYLOAD,2022-10-26 22:00:00,15.87270327,0.0019567,53.2176,116.9303,56.7666,129.4897,-0.0049409,-0.01340613,0.00049856,0 STARLINK-5197,1 54097U 22136AY  22299.91667824 -.01340613  49856-3 -49409-2 0  9999,2 54097  53.2176 116.9303 0019567  56.7666 129.4897 15.87270327  1483,6688.0769999999975,90.722,323.028,296.855,0.0
54097.0,STARLINK-5197,PAYLOAD,2022-10-27 08:00:01,15.86100123,0.0014503,53.2172,114.8245,59.6521,348.1107,-0.0046893,-0.01066758,0.0,0 STARLINK-5197,1 54097U 22136AY  22300.33334491 -.01066758  00000-0 -46893-2 0  9993,2 54097  53.2172 114.8245 0014503  59.6521 348.1107 15.86100123  1555,6691.366,90.789,322.935,303.526,0.0
54097.0,STARLINK-5197,PAYLOAD,2022-10-27 14:00:01,15.85365947,0.0012321,53.2171,113.5634,62.6616,333.3130000000001,-0.0043716,-0.00966874,0.0,0 STARLINK-5197,1 54097U 22136AY  22300.58335648 -.00966874  00000-0 -43716-2 0  9993,2 54097  53.2171 113.5634 0012321  62.6616 333.3130 15.85365947  1599,6693.432,90.831,323.543,307.05,0.0
54097.0,STARLINK-5197,PAYLOAD,2022-10-27 22:00:00,15.84625574,0.0008452999999999,53.2173,111.8871,60.7137,78.3407,-0.0053666,-0.01119222,0.0,0 STARLINK-5197,1 54097U 22136AY  22300.91667824 -.01119222  00000-0 -53666-2 0  9997,2 54097  53.2173 111.8871 0008453  60.7137  78.3407 15.84625574  1309,6695.516,90.873,323.041,311.722,0.0
54097.0,STARLINK-5197,PAYLOAD,2022-10-28 00:00:02,15.84469644,0.0007468,53.2172,111.4676,59.9595,194.778,-0.0059092,-0.01232253,0.0,0 STARLINK-5197,1 54097U 22136AY  22301.00002315 -.01232253  00000-0 -59092-2 0  9995,2 54097  53.2172 111.4676 0007468  59.9595 194.7780 15.84469644  1659,6695.956,90.882,322.821,312.82,0.0
54097.0,STARLINK-5197,PAYLOAD,2022-10-28 14:00:01,15.82890631,0.0002381,53.2173,108.5341,52.4718,289.9575,-0.0058931,-0.01144644,0.0,0 STARLINK-5197,1 54097U 22136AY  22301.58335648 -.01144644  00000-0 -58931-2 0  9993,2 54097  53.2173 108.5341 0002381  52.4718 289.9575 15.82890631  1303,6700.408,90.973,323.868,320.677,0.0
54097.0,STARLINK-5197,PAYLOAD,2022-10-28 22:00:01,15.82059352,0.0001794,53.2173,106.8638,27.4686,55.0305,-0.006414,-0.01191584,0.0,0 STARLINK-5197,1 54097U 22136AY  22301.91668981 -.01191584  00000-0 -64140-2 0  9993,2 54097  53.2173 106.8638 0001794  27.4686  55.0305 15.82059352  1801,6702.755,91.021,325.822,323.4170000000001,0.0
54097.0,STARLINK-5197,PAYLOAD,2022-10-29 12:00:00,15.80130476,0.0001358,53.2173,103.9401,57.0327,108.2633,-0.0036466,-0.00646475,0.0,0 STARLINK-5197,1 54097U 22136AY  22302.50001157 -.00646475  00000-0 -36466-2 0  9998,2 54097  53.2173 103.9401 0001358  57.0327 108.2633 15.80130476  1309,6708.208000000001,91.132,330.9840000000001,329.162,0.0
54097.0,STARLINK-5197,PAYLOAD,2022-10-29 22:00:01,15.79458548,0.0001225,53.2174,101.8594,42.3752,334.1293,-0.0072624,-0.0119458,0.0,0 STARLINK-5197,1 54097U 22136AY  22302.91668981 -.01194580  00000-0 -72624-2 0  9999,2 54097  53.2174 101.8594 0001225  42.3752 334.1293 15.79458548  1305,6710.111,91.17,332.798,331.154,0.0
54097.0,STARLINK-5197,PAYLOAD,2022-10-30 00:00:00,15.792431900000002,0.0001389,53.2173,101.4428,44.9523,85.5632,-0.0073551,-0.01197637,0.0,0 STARLINK-5197,1 54097U 22136AY  22303.00001157 -.01197637  00000-0 -73551-2 0  9992,2 54097  53.2173 101.4428 0001389  44.9523  85.5632 15.79243190  1973,6710.721,91.183,333.51800000000014,331.654,0.0
54097.0,STARLINK-5197,PAYLOAD,2022-10-30 14:00:01,15.77666297,0.0001155999999999,53.2179,98.5321,69.0098,138.2453,-0.0073131,-0.01117551,0.0,0 STARLINK-5197,1 54097U 22136AY  22303.58334491 -.01117551  00000-0 -73131-2 0  9996,2 54097  53.2179  98.5321 0001156  69.0098 138.2453 15.77666297  1303,6715.191999999999,91.274,337.833,336.28,0.0
54097.0,STARLINK-5197,PAYLOAD,2022-10-30 22:00:01,15.76789503,0.0001060999999999,53.217,96.8744,49.593,251.5609,-0.0075061,-0.01104224,0.0,0 STARLINK-5197,1 54097U 22136AY  22303.91668981 -.01104224  00000-0 -75061-2 0  9994,2 54097  53.2170  96.8744 0001061  49.5930 251.5609 15.76789503  1304,6717.681,91.325,340.259,338.833,0.0
54097.0,STARLINK-5197,PAYLOAD,2022-10-31 14:00:01,15.75565305,2.21e-05,53.2159,93.5572,132.5787,355.0133,0.00032822,0.00050695,0.0,0 STARLINK-5197,1 54097U 22136AY  22304.58334491  .00050695  00000-0  32822-3 0  9992,2 54097  53.2159  93.5572 0000221 132.5787 355.0133 15.75565305  1307,6721.16,91.396,343.1740000000001,342.876,0.0
54097.0,STARLINK-5197,PAYLOAD,2022-10-31 22:00:01,15.75686063,4.94e-05,53.2156,91.9025,346.1995,233.3937,0.00082255,0.00129914,0.0,0 STARLINK-5197,1 54097U 22136AY  22304.91668981  .00129914  00000-0  82255-3 0  9999,2 54097  53.2156  91.9025 0000494 346.1995 233.3937 15.75686063  2277,6720.816999999999,91.389,343.014,342.35,0.0
54097.0,STARLINK-5197,PAYLOAD,2022-11-01 06:00:00,15.75776867,5.15e-05,53.2174,90.2489,338.2407,333.2623,-0.00083705,-0.00129998,0.0,0 STARLINK-5197,1 54097U 22136AY  22305.25001157 -.00129998  00000-0 -83705-3 0  9998,2 54097  53.2174  90.2489 0000515 338.2407 333.2623 15.75776867  2327,6720.558000000001,91.383,342.77,342.077,0.0
54097.0,STARLINK-5197,PAYLOAD,2022-11-01 14:00:01,15.75650411,6.87e-05,53.2172,88.5927,67.3629,336.1818,-0.0022584,-0.00339327,0.0,0 STARLINK-5197,1 54097U 22136AY  22305.58334491 -.00339327  00000-0 -22584-2 0  9990,2 54097  53.2172  88.5927 0000687  67.3629 336.1818 15.75650411  1309,6720.918000000002,91.391,343.245,342.321,0.0
54097.0,STARLINK-5197,PAYLOAD,2022-11-01 22:00:00,15.75457801,0.0001268,53.217,86.9397,64.8677,70.4111,-0.0040986999999999,-0.00592481,0.0,0 STARLINK-5197,1 54097U 22136AY  22305.91667824 -.00592481  00000-0 -40987-2 0  9995,2 54097  53.2170  86.9397 0001268  64.8677  70.4111 15.75457801  2438,6721.465999999999,91.402,344.18300000000005,342.478,0.0
54097.0,STARLINK-5197,PAYLOAD,2022-11-02 14:00:01,15.74606414,0.0001125,53.2175,83.6312,69.0717,248.4714,-0.0044549,-0.0061844,0.0,0 STARLINK-5197,1 54097U 22136AY  22306.58334491 -.00618440  00000-0 -44549-2 0  9992,2 54097  53.2175  83.6312 0001125  69.0717 248.4714 15.74606414  2530,6723.888000000001,91.451,346.51,344.997,0.0
54097.0,STARLINK-5197,PAYLOAD,2022-11-02 22:00:00,15.74170994,0.0001315999999999,53.217,81.9788,42.997,4.8994,-0.0045153,-0.00615307,0.0,0 STARLINK-5197,1 54097U 22136AY  22306.91667824 -.00615307  00000-0 -45153-2 0  9999,2 54097  53.2170  81.9788 0001316  42.9970   4.8994 15.74170994  1303,6725.128000000002,91.477,347.87800000000016,346.108,0.0
54097.0,STARLINK-5197,PAYLOAD,2022-11-03 14:00:01,15.73344812,0.0001478,53.2173,78.6767,38.3185,188.7363,-0.0015407,-0.00212791,0.0,0 STARLINK-5197,1 54097U 22136AY  22307.58334491 -.00212791  00000-0 -15407-2 0  9993,2 54097  53.2173  78.6767 0001478  38.3185 188.7363 15.73344812  2698,6727.482,91.525,350.342,348.353,0.0
54097.0,STARLINK-5197,PAYLOAD,2022-11-03 22:00:00,15.73311678,0.0001592,53.2149,77.0235,31.5979,284.4706,-0.00019481,-0.00028002,0.0,0 STARLINK-5197,1 54097U 22136AY  22307.91667824 -.00028002  00000-0 -19481-3 0  9996,2 54097  53.2149  77.0235 0001592  31.5979 284.4706 15.73311678  1303,6727.5769999999975,91.527,350.51300000000015,348.371,0.0
54097.0,STARLINK-5197,PAYLOAD,2022-11-04 14:00:01,15.73291443,0.0001715,53.2164,73.7249,32.5114,101.6339,-0.00084178,-0.00117587,0.0,0 STARLINK-5197,1 54097U 22136AY  22308.58334491 -.00117587  00000-0 -84178-3 0  9993,2 54097  53.2164  73.7249 0001715  32.5114 101.6339 15.73291443  1306,6727.634,91.528,350.653,348.346,0.0
54097.0,STARLINK-5197,PAYLOAD,2022-11-04 22:00:01,15.73149599,0.0001761999999999,53.2153,72.0742,28.9679,194.0817,-0.00065297,-0.00091084,0.0,0 STARLINK-5197,1 54097U 22136AY  22308.91668981 -.00091084  00000-0 -65297-3 0  9998,2 54097  53.2153  72.0742 0001762  28.9679 194.0817 15.73149599  2909,6728.0390000000025,91.536,351.089,348.718,0.0
54097.0,STARLINK-5197,PAYLOAD,2022-11-05 14:00:01,15.73182844,0.0001954,53.2154,68.7757,31.7726,8.8775,0.00053783,0.00075489,0.0,0 STARLINK-5197,1 54097U 22136AY  22309.58335648  .00075489  00000-0  53783-3 0  9999,2 54097  53.2154  68.7757 0001954  31.7726   8.8775 15.73182844  1304,6727.944,91.534,351.124,348.494,0.0
54097.0,STARLINK-5197,PAYLOAD,2022-11-05 22:00:01,15.73224405,0.0002025,53.2153,67.126,30.8435,98.7609,0.00015126,0.00020683,0.0,0 STARLINK-5197,1 54097U 22136AY  22309.91668981  .00020683  00000-0  15126-3 0  9990,2 54097  53.2153  67.1260 0002025  30.8435  98.7609 15.73224405  1306,6727.826,91.532,351.05300000000005,348.32800000000015,0.0
